GLOBALSTAR M094         
1 39074U 13005C   25344.04455454 -.00000088  00000+0  87226-4 0  9996
2 39074  51.9977   6.6830 0000059  47.6732 312.4139 12.62265275594581
GLOBALSTAR M096         
1 39075U 13005D   25344.13680455 -.00000082  00000+0  11902-3 0  9999
2 39075  52.0089  55.0522 0000370 142.1059 217.9834 12.62269271593516
GLOBALSTAR M078         
1 39076U 13005E   25343.71491500 -.00000112  00000+0 -48194-4 0  9993
2 39076  51.9848 140.6106 0001041 154.9057 205.1860 12.62272376592081
GLOBALSTAR M095         
1 39077U 13005F   25344.13705014 -.00000108  00000+0 -25139-4 0  9998
2 39077  52.0056 136.6599 0000681 124.3208 235.7723 12.62267222591994
GLOBALSTAR M087         
1 52888U 22064A   25344.15006508 -.00000066  00000+0  20887-3 0  9998
2 52888  52.0006 277.9669 0000502  41.5737 318.5168 12.62261177167265
